{
  "type": "FeatureCollection",
  "features": [
    {
      "type": "Feature",
      "properties": {
        "norad_id": 25590,
        "name": "COSMOS 2361",
        "group": "musson",
        "lat": 82.8560355819308,
        "lon": 56.4945872260945,
        "alt_km": 997.7383117308163,
        "timestamp": "2025-12-25T07:00:34.315625+00:00",
        "meta_object_name": "COSMOS 2361",
        "meta_object_id": "1998-076A",
        "meta_epoch": "2025-12-24T22:06:25.566336",
        "meta_mean_motion": 13.73218834,
        "meta_eccentricity": 0.00303123,
        "meta_inclination": 82.9345,
        "meta_ra_of_asc_node": 335.0765,
        "meta_arg_of_pericenter": 230.3469,
        "meta_mean_anomaly": 186.1312,
        "meta_ephemeris_type": 0,
        "meta_classification_type": "U",
        "meta_norad_cat_id": 25590,
        "meta_element_set_no": 999,
        "meta_rev_at_epoch": 35278,
        "meta_bstar": 5.2732414e-05,
        "meta_mean_motion_dot": 6.4e-07,
        "meta_mean_motion_ddot": 0,
        "tle_line1": "1 25590U 98076A   25358.92112924  .00000064  00000+0  52732-4 0  9996",
        "tle_line2": "2 25590  82.9345 335.0765 0030312 230.3469 186.1312 13.73218834352786"
      },
      "geometry": {
        "type": "Point",
        "coordinates": [
          56.4945872260945,
          82.8560355819308
        ]
      }
    },
    {
      "type": "Feature",
      "properties": {
        "norad_id": 26818,
        "name": "COSMOS 2378",
        "group": "musson",
        "lat": -23.670721550703092,
        "lon": 173.53665602264903,
        "alt_km": 969.8943210924062,
        "timestamp": "2025-12-25T07:00:34.315646+00:00",
        "meta_object_name": "COSMOS 2378",
        "meta_object_id": "2001-023A",
        "meta_epoch": "2025-12-24T18:37:53.800032",
        "meta_mean_motion": 13.74142959,
        "meta_eccentricity": 0.00331574,
        "meta_inclination": 82.9272,
        "meta_ra_of_asc_node": 350.7992,
        "meta_arg_of_pericenter": 171.1572,
        "meta_mean_anomaly": 2.4655,
        "meta_ephemeris_type": 0,
        "meta_classification_type": "U",
        "meta_norad_cat_id": 26818,
        "meta_element_set_no": 999,
        "meta_rev_at_epoch": 23088,
        "meta_bstar": 3.8839071e-05,
        "meta_mean_motion_dot": 5.2e-07,
        "meta_mean_motion_ddot": 0,
        "tle_line1": "1 26818U 01023A   25358.77631713  .00000052  00000+0  38839-4 0  9990",
        "tle_line2": "2 26818  82.9272 350.7992 0033157 171.1572   2.4655 13.74142959230883"
      },
      "geometry": {
        "type": "Point",
        "coordinates": [
          173.53665602264903,
          -23.670721550703092
        ]
      }
    },
    {
      "type": "Feature",
      "properties": {
        "norad_id": 27436,
        "name": "COSMOS 2389",
        "group": "musson",
        "lat": 80.30665642894606,
        "lon": 71.28109517021441,
        "alt_km": 961.8523618910149,
        "timestamp": "2025-12-25T07:00:34.315660+00:00",
        "meta_object_name": "COSMOS 2389",
        "meta_object_id": "2002-026A",
        "meta_epoch": "2025-12-24T22:06:49.894848",
        "meta_mean_motion": 13.75155957,
        "meta_eccentricity": 0.00470943,
        "meta_inclination": 82.9513,
        "meta_ra_of_asc_node": 297.9673,
        "meta_arg_of_pericenter": 27.4918,
        "meta_mean_anomaly": 34.7494,
        "meta_ephemeris_type": 0,
        "meta_classification_type": "U",
        "meta_norad_cat_id": 27436,
        "meta_element_set_no": 999,
        "meta_rev_at_epoch": 18316,
        "meta_bstar": 6.8126465e-05,
        "meta_mean_motion_dot": 8.1e-07,
        "meta_mean_motion_ddot": 0,
        "tle_line1": "1 27436U 02026A   25358.92141082  .00000081  00000+0  68126-4 0  9997",
        "tle_line2": "2 27436  82.9513 297.9673 0047094  27.4918  34.7494 13.75155957183168"
      },
      "geometry": {
        "type": "Point",
        "coordinates": [
          71.28109517021441,
          80.30665642894606
        ]
      }
    },
    {
      "type": "Feature",
      "properties": {
        "norad_id": 27818,
        "name": "COSMOS 2398",
        "group": "musson",
        "lat": -74.6476370021088,
        "lon": -123.3484968522645,
        "alt_km": 1020.1195213401097,
        "timestamp": "2025-12-25T07:00:34.315673+00:00",
        "meta_object_name": "COSMOS 2398",
        "meta_object_id": "2003-023A",
        "meta_epoch": "2025-12-24T21:14:05.590752",
        "meta_mean_motion": 13.72387025,
        "meta_eccentricity": 0.00327049,
        "meta_inclination": 82.9482,
        "meta_ra_of_asc_node": 263.7489,
        "meta_arg_of_pericenter": 79.4671,
        "meta_mean_anomaly": 353.335,
        "meta_ephemeris_type": 0,
        "meta_classification_type": "U",
        "meta_norad_cat_id": 27818,
        "meta_element_set_no": 999,
        "meta_rev_at_epoch": 12983,
        "meta_bstar": 6.8522529e-05,
        "meta_mean_motion_dot": 7.8e-07,
        "meta_mean_motion_ddot": 0,
        "tle_line1": "1 27818U 03023A   25358.88478693  .00000078  00000+0  68523-4 0  9992",
        "tle_line2": "2 27818  82.9482 263.7489 0032704  79.4671 353.3350 13.72387025129833"
      },
      "geometry": {
        "type": "Point",
        "coordinates": [
          -123.3484968522645,
          -74.6476370021088
        ]
      }
    },
    {
      "type": "Feature",
      "properties": {
        "norad_id": 28380,
        "name": "COSMOS 2407",
        "group": "musson",
        "lat": -62.80135697502721,
        "lon": -170.31579662039167,
        "alt_km": 981.0657895643935,
        "timestamp": "2025-12-25T07:00:34.315684+00:00",
        "meta_object_name": "COSMOS 2407",
        "meta_object_id": "2004-028A",
        "meta_epoch": "2025-12-24T20:54:03.918816",
        "meta_mean_motion": 13.76314966,
        "meta_eccentricity": 0.00397506,
        "meta_inclination": 82.9594,
        "meta_ra_of_asc_node": 203.9106,
        "meta_arg_of_pericenter": 21.6844,
        "meta_mean_anomaly": 349.4802,
        "meta_ephemeris_type": 0,
        "meta_classification_type": "U",
        "meta_norad_cat_id": 28380,
        "meta_element_set_no": 999,
        "meta_rev_at_epoch": 7590,
        "meta_bstar": 3.5455867e-05,
        "meta_mean_motion_dot": 5e-07,
        "meta_mean_motion_ddot": 0,
        "tle_line1": "1 28380U 04028A   25358.87087869  .00000050  00000+0  35456-4 0  9992",
        "tle_line2": "2 28380  82.9594 203.9106 0039750  21.6844 349.4802 13.76314966 75907"
      },
      "geometry": {
        "type": "Point",
        "coordinates": [
          -170.31579662039167,
          -62.80135697502721
        ]
      }
    },
    {
      "type": "Feature",
      "properties": {
        "norad_id": 28521,
        "name": "COSMOS 2414",
        "group": "musson",
        "lat": 2.7169552177805363,
        "lon": 175.5043919560741,
        "alt_km": 944.7165388938574,
        "timestamp": "2025-12-25T07:00:34.315695+00:00",
        "meta_object_name": "COSMOS 2414",
        "meta_object_id": "2005-002A",
        "meta_epoch": "2025-12-24T22:20:42.993888",
        "meta_mean_motion": 13.87904494,
        "meta_eccentricity": 0.00414128,
        "meta_inclination": 82.9488,
        "meta_ra_of_asc_node": 175.4409,
        "meta_arg_of_pericenter": 105.8782,
        "meta_mean_anomaly": 254.6951,
        "meta_ephemeris_type": 0,
        "meta_classification_type": "U",
        "meta_norad_cat_id": 28521,
        "meta_element_set_no": 999,
        "meta_rev_at_epoch": 5964,
        "meta_bstar": 4.3942467e-05,
        "meta_mean_motion_dot": 6.9e-07,
        "meta_mean_motion_ddot": 0,
        "tle_line1": "1 28521U 05002A   25358.93105317  .00000069  00000+0  43942-4 0  9997",
        "tle_line2": "2 28521  82.9488 175.4409 0041412 105.8782 254.6951 13.87904494 59647"
      },
      "geometry": {
        "type": "Point",
        "coordinates": [
          175.5043919560741,
          2.7169552177805363
        ]
      }
    },
    {
      "type": "Feature",
      "properties": {
        "norad_id": 32052,
        "name": "COSMOS 2429",
        "group": "musson",
        "lat": -76.7379921078424,
        "lon": -57.45978293935893,
        "alt_km": 984.4305752072232,
        "timestamp": "2025-12-25T07:00:34.315706+00:00",
        "meta_object_name": "COSMOS 2429",
        "meta_object_id": "2007-038A",
        "meta_epoch": "2025-12-24T22:39:31.039200",
        "meta_mean_motion": 13.75150587,
        "meta_eccentricity": 0.00385165,
        "meta_inclination": 82.9808,
        "meta_ra_of_asc_node": 334.3115,
        "meta_arg_of_pericenter": 4.2546,
        "meta_mean_anomaly": 355.893,
        "meta_ephemeris_type": 0,
        "meta_classification_type": "U",
        "meta_norad_cat_id": 32052,
        "meta_element_set_no": 999,
        "meta_rev_at_epoch": 91770,
        "meta_bstar": 5.0012705e-05,
        "meta_mean_motion_dot": 6.3e-07,
        "meta_mean_motion_ddot": 0,
        "tle_line1": "1 32052U 07038A   25358.94410925  .00000063  00000+0  50013-4 0  9998",
        "tle_line2": "2 32052  82.9808 334.3115 0038516   4.2546 355.8930 13.75150587917702"
      },
      "geometry": {
        "type": "Point",
        "coordinates": [
          -57.45978293935893,
          -76.7379921078424
        ]
      }
    },
    {
      "type": "Feature",
      "properties": {
        "norad_id": 35635,
        "name": "COSMOS 2454",
        "group": "musson",
        "lat": 34.46035868044806,
        "lon": -25.73798018267936,
        "alt_km": 930.432948823237,
        "timestamp": "2025-12-25T07:00:34.315717+00:00",
        "meta_object_name": "COSMOS 2454",
        "meta_object_id": "2009-039A",
        "meta_epoch": "2025-12-24T22:11:29.584608",
        "meta_mean_motion": 13.89930133,
        "meta_eccentricity": 0.00200064,
        "meta_inclination": 82.9558,
        "meta_ra_of_asc_node": 159.4081,
        "meta_arg_of_pericenter": 40.893,
        "meta_mean_anomaly": 66.6302,
        "meta_ephemeris_type": 0,
        "meta_classification_type": "U",
        "meta_norad_cat_id": 35635,
        "meta_element_set_no": 999,
        "meta_rev_at_epoch": 83319,
        "meta_bstar": 5.1021077e-05,
        "meta_mean_motion_dot": 7.9e-07,
        "meta_mean_motion_ddot": 0,
        "tle_line1": "1 35635U 09039A   25358.92464797  .00000079  00000+0  51021-4 0  9992",
        "tle_line2": "2 35635  82.9558 159.4081 0020006  40.8930  66.6302 13.89930133833198"
      },
      "geometry": {
        "type": "Point",
        "coordinates": [
          -25.73798018267936,
          34.46035868044806
        ]
      }
    },
    {
      "type": "Feature",
      "properties": {
        "norad_id": 36519,
        "name": "COSMOS 2463",
        "group": "musson",
        "lat": 77.91070243212822,
        "lon": 52.72051166640889,
        "alt_km": 1011.7760422091133,
        "timestamp": "2025-12-25T07:00:34.315728+00:00",
        "meta_object_name": "COSMOS 2463",
        "meta_object_id": "2010-017A",
        "meta_epoch": "2025-12-24T19:12:31.795200",
        "meta_mean_motion": 13.71650172,
        "meta_eccentricity": 0.00348008,
        "meta_inclination": 82.9603,
        "meta_ra_of_asc_node": 17.8492,
        "meta_arg_of_pericenter": 253.3433,
        "meta_mean_anomaly": 280.281,
        "meta_ephemeris_type": 0,
        "meta_classification_type": "U",
        "meta_norad_cat_id": 36519,
        "meta_element_set_no": 999,
        "meta_rev_at_epoch": 78402,
        "meta_bstar": 3.1141472e-05,
        "meta_mean_motion_dot": 4.3e-07,
        "meta_mean_motion_ddot": 0,
        "tle_line1": "1 36519U 10017A   25358.80036800  .00000043  00000+0  31141-4 0  9991",
        "tle_line2": "2 36519  82.9603  17.8492 0034800 253.3433 280.2810 13.71650172784028"
      },
      "geometry": {
        "type": "Point",
        "coordinates": [
          52.72051166640889,
          77.91070243212822
        ]
      }
    }
  ]
}